     3.05           OBSERVATION DATA    M                   RINEX VERSION / TYPE
AVLN00NZL                                                   MARKER NAME
                                                            MARKER NUMBER
GEONET                                                      OBSERVER / AGENCY
                                                            REC # / TYPE / VERS
                                                            ANT # / TYPE
        0.0000        0.0000        0.0000                  APPROX POSITION XYZ
        0.0000        0.0000        0.0000                  ANTENNA: DELTA H/E/N
G    4 C1C L1C D1C S1C                                      SYS / # / OBS TYPES
R    4 C1C L1C D1C S1C                                      SYS / # / OBS TYPES
E    4 C1C L1C D1C S1C                                      SYS / # / OBS TYPES
  2026     9    18    18    16   36.0000000     GPS         TIME OF FIRST OBS
                                                            END OF HEADER
> 2026 09 18 18 16 36.0000000  0  3
G01  23456789.012 1 123456.789 1   -1234.567 1  45.000    
G02  23456790.012 1 123457.789 1   -1235.567 1  46.000    
R01  23456791.012 1 123458.789 1   -1236.567 1  47.000    
> 2026 09 18 18 16 37.0000000  0  3
G01  23456789.112 1 123456.889 1   -1234.667 1  45.100    
G02  23456790.112 1 123457.889 1   -1235.667 1  46.100    
R01  23456791.112 1 123458.889 1   -1236.667 1  47.100    
> 2026 09 18 18 16 38.0000000  0  2
G01  23456789.212 1 123456.989 1   -1234.767 1  45.200    
E01  23456792.012 1 123459.789 1   -1237.567 1  48.000    
